YAOGAN-36 04C           
1 54750U 22171E   26068.78871400  .00016196  00000+0  54592-3 0  9991
2 54750  34.9797  96.6578 0006685 275.3761  84.6192 15.29852307180246
STARLINK-31716          
1 59377U 24062D   26068.67171446 -.00000207  00000+0  51345-5 0  9995
2 59377  53.1595 207.0980 0000929  87.9131 272.1976 15.30192908110303
